STARLINK-30298          
1 57665U 23124C   26068.62010733 -.00001285  00000+0 -31256-4 0  9993
2 57665  53.1607 207.3888 0001425  95.3928 264.7235 15.30189614143552
TRANSPORTER-11 OBJECT A 
1 60468U 24149A   26068.74646182  .00010774  00000+0  36054-3 0  9993
2 60468  97.3780 149.0949 0003110 191.0010 169.1164 15.31141332 86830
